NORAD_CAT_ID,OBJECT_NAME,OBJECT_TYPE,EPOCH,MEAN_MOTION,ECCENTRICITY,INCLINATION,RA_OF_ASC_NODE,ARG_OF_PERICENTER,MEAN_ANOMALY,BSTAR,MEAN_MOTION_DOT,MEAN_MOTION_DDOT,TLE_LINE0,TLE_LINE1,TLE_LINE2,SEMIMAJOR_AXIS,PERIOD,APOGEE,PERIGEE,DECAYED
50843.0,STARLINK-3325,PAYLOAD,2023-04-20 14:52:37,15.08854141,0.0001436,53.216,231.0159,97.9861,262.1294,0.0017962,0.00028425,0.0,0 STARLINK-3325,1 50843U 22001AS  23110.61988397  .00028425  00000-0  17962-2 0  9991,2 50843  53.2160 231.0159 0001436  97.9861 262.1294 15.08854141 71139,6917.837,95.437,540.696,538.709,0.0
50843.0,STARLINK-3325,PAYLOAD,2023-04-21 17:54:10,15.08867986,0.0001507,53.2155,225.9629,93.0229,267.0936,0.00059176,9.15e-05,0.0,0 STARLINK-3325,1 50843U 22001AS  23111.74595064  .00009150  00000-0  59176-3 0  9999,2 50843  53.2155 225.9629 0001507  93.0229 267.0936 15.08867986 72501,6917.795,95.436,540.702,538.617,0.0
50843.0,STARLINK-3325,PAYLOAD,2023-04-22 00:15:42,15.08880278,0.0001357,53.2163,224.773,89.0113,271.1034,0.0009368,0.00014669,0.0,0 STARLINK-3325,1 50843U 22001AS  23112.01090372  .00014669  00000-0  93680-3 0  9991,2 50843  53.2163 224.7730 0001357  89.0113 271.1034 15.08880278 72548,6917.757,95.435,540.561,538.684,0.0
50843.0,STARLINK-3325,PAYLOAD,2023-04-22 17:44:56,15.08867025,0.0001619,53.2157,221.5003,89.1879,270.9299,0.00068662,0.00010664,0.0,0 STARLINK-3325,1 50843U 22001AS  23112.73954264  .00010664  00000-0  68662-3 0  9992,2 50843  53.2157 221.5003 0001619  89.1879 270.9299 15.08867025 72657,6917.798,95.436,540.783,538.543,0.0
50843.0,STARLINK-3325,PAYLOAD,2023-04-23 00:06:29,15.0884117,0.0001401,53.2152,220.313,84.3161,275.799,-0.00012351,-2.253e-05,0.0,0 STARLINK-3325,1 50843U 22001AS  23113.00450317 -.00002253  00000-0 -12351-3 0  9994,2 50843  53.2152 220.3130 0001401  84.3161 275.7990 15.08841170 72698,6917.877,95.437,540.711,538.773,0.0
50843.0,STARLINK-3325,PAYLOAD,2023-04-23 09:38:48,15.08826424,8.1e-05,53.2144,218.5339,95.2434,264.8651,-0.00070921,-0.00011553,0.0,0 STARLINK-3325,1 50843U 22001AS  23113.40194714 -.00011553  00000-0 -70921-3 0  9994,2 50843  53.2144 218.5339 0000810  95.2434 264.8651 15.08826424 72751,6917.922,95.438,540.347,539.227,0.0
50843.0,STARLINK-3325,PAYLOAD,2023-04-23 16:00:21,15.08834794,0.0001812,53.2137,217.3389,82.7262,277.3936,0.00017062,2.428e-05,0.0,0 STARLINK-3325,1 50843U 22001AS  23113.66691260  .00002428  00000-0  17062-3 0  9996,2 50843  53.2137 217.3389 0001812  82.7262 277.3936 15.08834794 71593,6917.896,95.438,541.015,538.508,0.0
50843.0,STARLINK-3325,PAYLOAD,2023-04-24 07:54:11,15.0892235,0.0001129,53.2145,214.3661,77.0211,283.0907,0.0042566,0.00068266,0.0,0 STARLINK-3325,1 50843U 22001AS  23114.32930136  .00068266  00000-0  42566-2 0  9996,2 50843  53.2145 214.3661 0001129  77.0211 283.0907 15.08922350 72896,6917.629,95.432,540.275,538.713,0.0
50843.0,STARLINK-3325,PAYLOAD,2023-04-25 10:55:44,15.0882084,0.0001425,53.217,209.3073,134.4457,225.6651,-0.00045126,-7.459e-05,0.0,0 STARLINK-3325,1 50843U 22001AS  23115.45537950 -.00007459  00000-0 -45126-3 0  9993,2 50843  53.2170 209.3073 0001425 134.4457 225.6651 15.08820840 73063,6917.939,95.439,540.79,538.818,0.0
50843.0,STARLINK-3325,PAYLOAD,2023-04-26 12:21:55,15.08862334,8.98e-05,53.2149,204.5518,124.4043,235.7034,0.0016486,0.00026063,0.0,0 STARLINK-3325,1 50843U 22001AS  23116.51522429  .00026063  00000-0  16486-2 0  9992,2 50843  53.2149 204.5518 0000898 124.4043 235.7034 15.08862334 72029,6917.812,95.436,540.298,539.056,0.0
50843.0,STARLINK-3325,PAYLOAD,2023-04-27 12:12:42,15.08841972,0.0001017,53.2153,200.0906,130.0898,230.0183,0.0010139,0.00015886,0.0,0 STARLINK-3325,1 50843U 22001AS  23117.50882752  .00015886  00000-0  10139-2 0  9990,2 50843  53.2153 200.0906 0001017 130.0898 230.0183 15.08841972 72175,6917.874,95.437,540.443,539.036,0.0
50843.0,STARLINK-3325,PAYLOAD,2023-04-28 05:41:57,15.08844395,9.13e-05,53.2148,196.8225,74.5664,285.5429,0.00077048,0.00011997,0.0,0 STARLINK-3325,1 50843U 22001AS  23118.23747218  .00011997  00000-0  77048-3 0  9990,2 50843  53.2148 196.8225 0000913  74.5664 285.5429 15.08844395 73487,6917.867,95.437,540.364,539.1,0.0
50843.0,STARLINK-3325,PAYLOAD,2023-04-28 12:03:29,15.08846293,7.37e-05,53.215,195.6328,77.9495,282.158,0.0003091,4.636e-05,0.0,0 STARLINK-3325,1 50843U 22001AS  23118.50242950  .00004636  00000-0  30910-3 0  9992,2 50843  53.2150 195.6328 0000737  77.9495 282.1580 15.08846293 72326,6917.861,95.437,540.236,539.216,0.0
50843.0,STARLINK-3325,PAYLOAD,2023-04-29 05:32:44,15.08836959,0.0001093,53.2154,192.3606,79.6426,280.4689,0.00011798,1.59e-05,0.0,0 STARLINK-3325,1 50843U 22001AS  23119.23107452  .00001590  00000-0  11798-3 0  9999,2 50843  53.2154 192.3606 0001093  79.6426 280.4689 15.08836959 73636,6917.89,95.438,540.511,538.999,0.0
50843.0,STARLINK-3325,PAYLOAD,2023-04-29 11:54:17,15.08838386,0.000103,53.2154,191.1721,90.3523,269.7587,0.00013386,1.843e-05,0.0,0 STARLINK-3325,1 50843U 22001AS  23119.49603462  .00001843  00000-0  13386-3 0  9995,2 50843  53.2154 191.1721 0001030  90.3523 269.7587 15.08838386 72474,6917.885,95.438,540.463,539.038,0.0
50843.0,STARLINK-3325,PAYLOAD,2023-04-30 11:45:04,15.08843517,0.0001022,53.2154,186.7114,94.0574,266.0535,0.00016291,2.306e-05,0.0,0 STARLINK-3325,1 50843U 22001AS  23120.48963347  .00002306  00000-0  16291-3 0  9990,2 50843  53.2154 186.7114 0001022  94.0574 266.0535 15.08843517 73823,6917.87,95.437,540.442,539.028,0.0
50843.0,STARLINK-3325,PAYLOAD,2023-05-01 05:14:19,15.08837582,0.0001042,53.2167,183.4419,96.8452,263.2659,9.7751e-05,1.268e-05,0.0,0 STARLINK-3325,1 50843U 22001AS  23121.21827804  .00001268  00000-0  97751-4 0  9996,2 50843  53.2167 183.4419 0001042  96.8452 263.2659 15.08837582 73939,6917.888,95.438,540.474,539.032,0.0
50843.0,STARLINK-3325,PAYLOAD,2023-05-01 10:00:28,15.08836259,0.0001077,53.2164,182.5491,96.1812,263.9303,6.7153e-05,7.81e-06,0.0,0 STARLINK-3325,1 50843U 22001AS  23121.41700011  .00000781  00000-0  67153-4 0  9990,2 50843  53.2164 182.5491 0001077  96.1812 263.9303 15.08836259 72760,6917.892,95.438,540.502,539.012,0.0
50843.0,STARLINK-3325,PAYLOAD,2023-05-02 11:26:38,15.08851881,0.0001021,53.2166,177.7917,88.2717,271.8392,0.00024698,3.646e-05,0.0,0 STARLINK-3325,1 50843U 22001AS  23122.47683268  .00003646  00000-0  24698-3 0  9990,2 50843  53.2166 177.7917 0001021  88.2717 271.8392 15.08851881 74122,6917.844,95.437,540.415,539.003,0.0
50843.0,STARLINK-3325,PAYLOAD,2023-05-02 20:58:57,15.08844589,9.58e-05,53.2167,176.0072,91.5882,268.5219,0.00017248,2.459e-05,0.0,0 STARLINK-3325,1 50843U 22001AS  23122.87427568  .00002459  00000-0  17248-3 0  9997,2 50843  53.2167 176.0072 0000958  91.5882 268.5219 15.08844589 72985,6917.866,95.437,540.394,539.069,0.0
50843.0,STARLINK-3325,PAYLOAD,2023-05-03 03:20:30,15.08840431,0.0001279,53.2168,174.8219,63.5277,296.5846,0.00018331,2.631e-05,0.0,0 STARLINK-3325,1 50843U 22001AS  23123.13923988  .00002631  00000-0  18331-3 0  9990,2 50843  53.2168 174.8219 0001279  63.5277 296.5846 15.08840431 74227,6917.879,95.438,540.629,538.859,0.0
50843.0,STARLINK-3325,PAYLOAD,2023-05-03 09:42:02,15.08837136,0.0001064,53.2166,173.6271,113.7727,246.3377,4.3582e-05,4.06e-06,0.0,0 STARLINK-3325,1 50843U 22001AS  23123.40419972  .00000406  00000-0  43582-4 0  9998,2 50843  53.2166 173.6271 0001064 113.7727 246.3377 15.08837136 73061,6917.889,95.438,540.49,539.018,0.0
50843.0,STARLINK-3325,PAYLOAD,2023-05-04 12:43:35,15.0884815,8.38e-05,53.216,168.572,91.3714,268.7374,2.2904e-05,7.7e-07,0.0,0 STARLINK-3325,1 50843U 22001AS  23124.53027515  .00000077  00000-0  22904-4 0  9990,2 50843  53.2160 168.5720 0000838  91.3714 268.7374 15.08848150 74437,6917.855,95.437,540.3,539.141,0.0
50843.0,STARLINK-3325,PAYLOAD,2023-05-05 07:48:13,15.08839155,9.73e-05,53.2153,165.0029,99.1164,260.9938,0.00013094,1.797e-05,0.0,0 STARLINK-3325,1 50843U 22001AS  23125.32515902  .00001797  00000-0  13094-3 0  9999,2 50843  53.2153 165.0029 0000973  99.1164 260.9938 15.08839155 74556,6917.883,95.438,540.421,539.075,0.0
50843.0,STARLINK-3325,PAYLOAD,2023-05-05 12:34:22,15.08842641,9.54e-05,53.2152,164.1106,97.5745,262.5355,0.00013571,1.873e-05,0.0,0 STARLINK-3325,1 50843U 22001AS  23125.52387692  .00001873  00000-0  13571-3 0  9999,2 50843  53.2152 164.1106 0000954  97.5745 262.5355 15.08842641 73382,6917.872,95.437,540.397,539.077,0.0
50843.0,STARLINK-3325,PAYLOAD,2023-05-06 07:39:01,15.08839893,0.0001071,53.215,160.5419,99.8259,260.2854,9.3902e-05,1.207e-05,0.0,0 STARLINK-3325,1 50843U 22001AS  23126.31876209  .00001207  00000-0  93902-4 0  9992,2 50843  53.2150 160.5419 0001071  99.8259 260.2854 15.08839893 73501,6917.881,95.438,540.487,539.005,0.0
50843.0,STARLINK-3325,PAYLOAD,2023-05-07 02:43:38,15.0884426,0.0001168,53.2151,156.9724,113.5054,246.6061,0.00011141,1.486e-05,0.0,0 STARLINK-3325,1 50843U 22001AS  23127.11363763  .00001486  00000-0  11141-3 0  9990,2 50843  53.2151 156.9724 0001168 113.5054 246.6061 15.08844260 74822,6917.867,95.437,540.54,538.924,0.0
50843.0,STARLINK-3325,PAYLOAD,2023-05-07 07:29:47,15.08845007,0.0001141,53.2153,156.0804,113.0109,247.1004,0.00011104,1.48e-05,0.0,0 STARLINK-3325,1 50843U 22001AS  23127.31235722  .00001480  00000-0  11104-3 0  9998,2 50843  53.2153 156.0804 0001141 113.0109 247.1004 15.08845007 73654,6917.865,95.437,540.519,538.941,0.0
50843.0,STARLINK-3325,PAYLOAD,2023-05-07 18:37:30,15.08839245,9.69e-05,53.2153,154.0,90.7242,269.3861,7.3828e-05,8.87e-06,0.0,0 STARLINK-3325,1 50843U 22001AS  23127.77604244  .00000887  00000-0  73828-4 0  9999,2 50843  53.2153 154.0000 0000969  90.7242 269.3861 15.08839245 74921,6917.883,95.438,540.418,539.077,0.0
50843.0,STARLINK-3325,PAYLOAD,2023-05-08 08:55:59,15.08828781,0.0001074,53.2157,151.325,93.6377,266.4738,-1.117e-05,-4.65e-06,0.0,0 STARLINK-3325,1 50843U 22001AS  23128.37221389 -.00000465  00000-0 -11170-4 0  9997,2 50843  53.2157 151.3250 0001074  93.6377 266.4738 15.08828781 75016,6917.915,95.438,540.523,539.037,0.0
